OBJECT_NAME,OBJECT_ID,EPOCH,MEAN_MOTION,ECCENTRICITY,INCLINATION,RA_OF_ASC_NODE,ARG_OF_PERICENTER,MEAN_ANOMALY,EPHEMERIS_TYPE,CLASSIFICATION_TYPE,NORAD_CAT_ID,ELEMENT_SET_NO,REV_AT_EPOCH,BSTAR,MEAN_MOTION_DOT,MEAN_MOTION_DDOT
TIANMU-1 21,2023-208C,2026-06-15T11:42:10.045728,15.35051024,.0006074,97.4510,286.0851,331.1998,28.8909,0,U,58662,999,13730,.23474E-3,.7905E-4,0
TIANMU-1 22,2023-208D,2026-06-15T13:40:06.914208,15.31038567,.0003375,97.4504,282.7979,9.9831,350.1476,0,U,58663,999,13708,.21169E-3,.627E-4,0
TIANMU-1 15,2024-004A,2026-06-15T12:37:20.368416,15.27009060,.0006879,97.4662,352.7159,8.3679,351.7673,0,U,58700,999,13552,.18796E-3,.491E-4,0
TIANMU-1 16,2024-004B,2026-06-15T12:21:24.557184,15.26733501,.0006016,97.4607,351.9436,13.5261,346.6137,0,U,58701,999,13552,.18108E-3,.4687E-4,0
TIANMU-1 17,2024-004C,2026-06-15T12:00:27.639360,15.26732679,.0005691,97.4635,352.4134,19.9163,340.2296,0,U,58702,999,13551,.1765E-3,.4566E-4,0
TIANMU-1 18,2024-004D,2026-06-15T13:01:14.102976,15.26991268,.0004206,97.4653,352.7100,20.7860,339.3549,0,U,58703,999,13552,.17939E-3,.4678E-4,0
INSAT-3DS,2024-033A,2026-06-15T11:44:26.096352,1.00271483,.0000976,0.0432,117.9487,316.3176,87.7161,0,U,58990,999,4705,0,-.153E-5,0
METEOR-M2 4,2024-039A,2026-06-15T11:53:07.364832,14.22429371,.0007189,98.7010,125.8145,165.7272,194.4110,0,U,59051,999,11902,.16885E-4,-.6E-7,0
GOES 19,2024-119A,2026-06-15T10:59:29.903136,1.00278085,.000064,0.0205,172.9351,350.0804,190.4149,0,U,60133,999,694,0,-.246E-5,0
MTG-S1,2025-143A,2026-06-15T07:54:41.856768,1.00271862,.0000988,0.6048,338.5512,10.7068,29.5609,0,U,64723,999,340,0,-.28E-6,0
METOP-SGA1,2025-172A,2026-06-15T10:47:12.816096,14.21509531,.0000917,98.6644,226.2089,93.1129,267.0153,0,U,65159,999,4354,.39138E-4,.42E-6,0
FENGYUN 3H,2025-219A,2026-06-15T10:05:16.811808,14.19920190,.0001581,98.6768,107.2238,77.2628,282.8725,0,U,65815,999,3713,.38047E-4,.37E-6,0
