TIANMU-1 21             
1 58662U 23208C   26166.48761627  .00007905  00000+0  23474-3 0  9997
2 58662  97.4510 286.0851 0006074 331.1998  28.8909 15.35051024137302
TIANMU-1 22             
1 58663U 23208D   26166.56952447  .00006270  00000+0  21169-3 0  9992
2 58663  97.4504 282.7979 0003375   9.9831 350.1476 15.31038567137085
TIANMU-1 15             
1 58700U 24004A   26166.52593019  .00004910  00000+0  18796-3 0  9992
2 58700  97.4662 352.7159 0006879   8.3679 351.7673 15.27009060135529
TIANMU-1 16             
1 58701U 24004B   26166.51486756  .00004687  00000+0  18108-3 0  9999
2 58701  97.4607 351.9436 0006016  13.5261 346.6137 15.26733501135527
TIANMU-1 17             
1 58702U 24004C   26166.50031990  .00004566  00000+0  17650-3 0  9992
2 58702  97.4635 352.4134 0005691  19.9163 340.2296 15.26732679135519
TIANMU-1 18             
1 58703U 24004D   26166.54252434  .00004678  00000+0  17939-3 0  9999
2 58703  97.4653 352.7100 0004206  20.7860 339.3549 15.26991268135523
INSAT-3DS               
1 58990U 24033A   26166.48919093 -.00000153  00000+0  00000+0 0  9995
2 58990   0.0432 117.9487 0000976 316.3176  87.7161  1.00271483 47050
METEOR-M2 4             
1 59051U 24039A   26166.49522413 -.00000006  00000+0  16885-4 0  9997
2 59051  98.7010 125.8145 0007189 165.7272 194.4110 14.22429371119026
GOES 19                 
1 60133U 24119A   26166.45798499 -.00000246  00000+0  00000+0 0  9997
2 60133   0.0205 172.9351 0000640 350.0804 190.4149  1.00278085  6948
MTG-S1                  
1 64723U 25143A   26166.32965112 -.00000028  00000+0  00000+0 0  9996
2 64723   0.6048 338.5512 0000988  10.7068  29.5609  1.00271862  3401
METOP-SGA1              
1 65159U 25172A   26166.44945389  .00000042  00000+0  39138-4 0  9993
2 65159  98.6644 226.2089 0000917  93.1129 267.0153 14.21509531 43547
FENGYUN 3H              
1 65815U 25219A   26166.42033347  .00000037  00000+0  38047-4 0  9996
2 65815  98.6768 107.2238 0001581  77.2628 282.8725 14.19920190 37135
